<?xml version="1.0" encoding="UTF-8"?>
<ndm xmlns:xsi="http://www.w3.org/2001/XMLSchema-instance" xsi:noNamespaceSchemaLocation="https://sanaregistry.org/r/ndmxml_unqualified/ndmxml-2.0.0-master-2.0.xsd">
<omm id="CCSDS_OMM_VERS" version="2.0">
<header><CREATION_DATE/><ORIGINATOR/></header><body><segment><metadata><OBJECT_NAME>GLOBALSTAR M024</OBJECT_NAME><OBJECT_ID>1999-043A</OBJECT_ID><CENTER_NAME>EARTH</CENTER_NAME><REF_FRAME>TEME</REF_FRAME><TIME_SYSTEM>UTC</TIME_SYSTEM><MEAN_ELEMENT_THEORY>SGP4</MEAN_ELEMENT_THEORY></metadata><data><meanElements><EPOCH>2025-02-28T14:26:24.833184</EPOCH><MEAN_MOTION>11.10164069</MEAN_MOTION><ECCENTRICITY>.0000592</ECCENTRICITY><INCLINATION>51.9991</INCLINATION><RA_OF_ASC_NODE>265.6334</RA_OF_ASC_NODE><ARG_OF_PERICENTER>294.4305</ARG_OF_PERICENTER><MEAN_ANOMALY>100.2773</MEAN_ANOMALY></meanElements><tleParameters><EPHEMERIS_TYPE>0</EPHEMERIS_TYPE><CLASSIFICATION_TYPE>U</CLASSIFICATION_TYPE><NORAD_CAT_ID>25883</NORAD_CAT_ID><ELEMENT_SET_NO>999</ELEMENT_SET_NO><REV_AT_EPOCH>10280</REV_AT_EPOCH><BSTAR>-.20692E-2</BSTAR><MEAN_MOTION_DOT>-.123E-5</MEAN_MOTION_DOT><MEAN_MOTION_DDOT>0</MEAN_MOTION_DDOT></tleParameters></data></segment></body></omm>
<omm id="CCSDS_OMM_VERS" version="2.0">
<header><CREATION_DATE/><ORIGINATOR/></header><body><segment><metadata><OBJECT_NAME>GLOBALSTAR M027</OBJECT_NAME><OBJECT_ID>1999-043B</OBJECT_ID><CENTER_NAME>EARTH</CENTER_NAME><REF_FRAME>TEME</REF_FRAME><TIME_SYSTEM>UTC</TIME_SYSTEM><MEAN_ELEMENT_THEORY>SGP4</MEAN_ELEMENT_THEORY></metadata><data><meanElements><EPOCH>2025-02-28T05:56:25.416960</EPOCH><MEAN_MOTION>11.04371050</MEAN_MOTION><ECCENTRICITY>.0021145</ECCENTRICITY><INCLINATION>52.0256</INCLINATION><RA_OF_ASC_NODE>341.3256</RA_OF_ASC_NODE><ARG_OF_PERICENTER>174.4729</ARG_OF_PERICENTER><MEAN_ANOMALY>185.6301</MEAN_ANOMALY></meanElements><tleParameters><EPHEMERIS_TYPE>0</EPHEMERIS_TYPE><CLASSIFICATION_TYPE>U</CLASSIFICATION_TYPE><NORAD_CAT_ID>25884</NORAD_CAT_ID><ELEMENT_SET_NO>999</ELEMENT_SET_NO><REV_AT_EPOCH>12920</REV_AT_EPOCH><BSTAR>-.71052E-3</BSTAR><MEAN_MOTION_DOT>-.82E-6</MEAN_MOTION_DOT><MEAN_MOTION_DDOT>0</MEAN_MOTION_DDOT></tleParameters></data></segment></body></omm>
<omm id="CCSDS_OMM_VERS" version="2.0">
<header><CREATION_DATE/><ORIGINATOR/></header><body><segment><metadata><OBJECT_NAME>GLOBALSTAR M054</OBJECT_NAME><OBJECT_ID>1999-043C</OBJECT_ID><CENTER_NAME>EARTH</CENTER_NAME><REF_FRAME>TEME</REF_FRAME><TIME_SYSTEM>UTC</TIME_SYSTEM><MEAN_ELEMENT_THEORY>SGP4</MEAN_ELEMENT_THEORY></metadata><data><meanElements><EPOCH>2025-02-28T14:40:02.164224</EPOCH><MEAN_MOTION>11.39213506</MEAN_MOTION><ECCENTRICITY>.0005483</ECCENTRICITY><INCLINATION>52.0126</INCLINATION><RA_OF_ASC_NODE>126.0348</RA_OF_ASC_NODE><ARG_OF_PERICENTER>351.0498</ARG_OF_PERICENTER><MEAN_ANOMALY>160.9030</MEAN_ANOMALY></meanElements><tleParameters><EPHEMERIS_TYPE>0</EPHEMERIS_TYPE><CLASSIFICATION_TYPE>U</CLASSIFICATION_TYPE><NORAD_CAT_ID>25885</NORAD_CAT_ID><ELEMENT_SET_NO>999</ELEMENT_SET_NO><REV_AT_EPOCH>10667</REV_AT_EPOCH><BSTAR>-.17979E-2</BSTAR><MEAN_MOTION_DOT>-.142E-5</MEAN_MOTION_DOT><MEAN_MOTION_DDOT>0</MEAN_MOTION_DDOT></tleParameters></data></segment></body></omm>
<omm id="CCSDS_OMM_VERS" version="2.0">
<header><CREATION_DATE/><ORIGINATOR/></header><body><segment><metadata><OBJECT_NAME>GLOBALSTAR M053</OBJECT_NAME><OBJECT_ID>1999-043D</OBJECT_ID><CENTER_NAME>EARTH</CENTER_NAME><REF_FRAME>TEME</REF_FRAME><TIME_SYSTEM>UTC</TIME_SYSTEM><MEAN_ELEMENT_THEORY>SGP4</MEAN_ELEMENT_THEORY></metadata><data><meanElements><EPOCH>2025-02-28T12:19:36.486336</EPOCH><MEAN_MOTION>11.27663419</MEAN_MOTION><ECCENTRICITY>.0003356</ECCENTRICITY><INCLINATION>51.9984</INCLINATION><RA_OF_ASC_NODE>67.3308</RA_OF_ASC_NODE><ARG_OF_PERICENTER>252.9955</ARG_OF_PERICENTER><MEAN_ANOMALY>278.3073</MEAN_ANOMALY></meanElements><tleParameters><EPHEMERIS_TYPE>0</EPHEMERIS_TYPE><CLASSIFICATION_TYPE>U</CLASSIFICATION_TYPE><NORAD_CAT_ID>25886</NORAD_CAT_ID><ELEMENT_SET_NO>999</ELEMENT_SET_NO><REV_AT_EPOCH>10718</REV_AT_EPOCH><BSTAR>.47157E-3</BSTAR><MEAN_MOTION_DOT>-.52E-6</MEAN_MOTION_DOT><MEAN_MOTION_DDOT>0</MEAN_MOTION_DDOT></tleParameters></data></segment></body></omm>
<omm id="CCSDS_OMM_VERS" version="2.0">
<header><CREATION_DATE/><ORIGINATOR/></header><body><segment><metadata><OBJECT_NAME>GLOBALSTAR M058</OBJECT_NAME><OBJECT_ID>1999-049A</OBJECT_ID><CENTER_NAME>EARTH</CENTER_NAME><REF_FRAME>TEME</REF_FRAME><TIME_SYSTEM>UTC</TIME_SYSTEM><MEAN_ELEMENT_THEORY>SGP4</MEAN_ELEMENT_THEORY></metadata><data><meanElements><EPOCH>2025-02-28T09:46:20.711424</EPOCH><MEAN_MOTION>11.93198766</MEAN_MOTION><ECCENTRICITY>.0002218</ECCENTRICITY><INCLINATION>51.9957</INCLINATION><RA_OF_ASC_NODE>39.6438</RA_OF_ASC_NODE><ARG_OF_PERICENTER>64.8259</ARG_OF_PERICENTER><MEAN_ANOMALY>295.2806</MEAN_ANOMALY></meanElements><tleParameters><EPHEMERIS_TYPE>0</EPHEMERIS_TYPE><CLASSIFICATION_TYPE>U</CLASSIFICATION_TYPE><NORAD_CAT_ID>25907</NORAD_CAT_ID><ELEMENT_SET_NO>999</ELEMENT_SET_NO><REV_AT_EPOCH>52855</REV_AT_EPOCH><BSTAR>-.30608E-3</BSTAR><MEAN_MOTION_DOT>-.107E-5</MEAN_MOTION_DOT><MEAN_MOTION_DDOT>0</MEAN_MOTION_DDOT></tleParameters></data></segment></body></omm>
<omm id="CCSDS_OMM_VERS" version="2.0">
<header><CREATION_DATE/><ORIGINATOR/></header><body><segment><metadata><OBJECT_NAME>GLOBALSTAR M050</OBJECT_NAME><OBJECT_ID>1999-049B</OBJECT_ID><CENTER_NAME>EARTH</CENTER_NAME><REF_FRAME>TEME</REF_FRAME><TIME_SYSTEM>UTC</TIME_SYSTEM><MEAN_ELEMENT_THEORY>SGP4</MEAN_ELEMENT_THEORY></metadata><data><meanElements><EPOCH>2025-02-28T11:09:05.600160</EPOCH><MEAN_MOTION>12.07450031</MEAN_MOTION><ECCENTRICITY>.0009194</ECCENTRICITY><INCLINATION>51.9995</INCLINATION><RA_OF_ASC_NODE>55.2885</RA_OF_ASC_NODE><ARG_OF_PERICENTER>173.9519</ARG_OF_PERICENTER><MEAN_ANOMALY>353.6677</MEAN_ANOMALY></meanElements><tleParameters><EPHEMERIS_TYPE>0</EPHEMERIS_TYPE><CLASSIFICATION_TYPE>U</CLASSIFICATION_TYPE><NORAD_CAT_ID>25908</NORAD_CAT_ID><ELEMENT_SET_NO>999</ELEMENT_SET_NO><REV_AT_EPOCH>13505</REV_AT_EPOCH><BSTAR>.69829E-3</BSTAR><MEAN_MOTION_DOT>-.26E-6</MEAN_MOTION_DOT><MEAN_MOTION_DDOT>0</MEAN_MOTION_DDOT></tleParameters></data></segment></body></omm>
<omm id="CCSDS_OMM_VERS" version="2.0">
<header><CREATION_DATE/><ORIGINATOR/></header><body><segment><metadata><OBJECT_NAME>GLOBALSTAR M033</OBJECT_NAME><OBJECT_ID>1999-049C</OBJECT_ID><CENTER_NAME>EARTH</CENTER_NAME><REF_FRAME>TEME</REF_FRAME><TIME_SYSTEM>UTC</TIME_SYSTEM><MEAN_ELEMENT_THEORY>SGP4</MEAN_ELEMENT_THEORY></metadata><data><meanElements><EPOCH>2025-02-28T07:52:54.528096</EPOCH><MEAN_MOTION>12.20287022</MEAN_MOTION><ECCENTRICITY>.0014028</ECCENTRICITY><INCLINATION>51.9916</INCLINATION><RA_OF_ASC_NODE>295.0180</RA_OF_ASC_NODE><ARG_OF_PERICENTER>41.7476</ARG_OF_PERICENTER><MEAN_ANOMALY>318.4440</MEAN_ANOMALY></meanElements><tleParameters><EPHEMERIS_TYPE>0</EPHEMERIS_TYPE><CLASSIFICATION_TYPE>U</CLASSIFICATION_TYPE><NORAD_CAT_ID>25909</NORAD_CAT_ID><ELEMENT_SET_NO>999</ELEMENT_SET_NO><REV_AT_EPOCH>52245</REV_AT_EPOCH><BSTAR>-.28468E-3</BSTAR><MEAN_MOTION_DOT>-.121E-5</MEAN_MOTION_DOT><MEAN_MOTION_DDOT>0</MEAN_MOTION_DDOT></tleParameters></data></segment></body></omm>
<omm id="CCSDS_OMM_VERS" version="2.0">
<header><CREATION_DATE/><ORIGINATOR/></header><body><segment><metadata><OBJECT_NAME>GLOBALSTAR M055</OBJECT_NAME><OBJECT_ID>1999-049D</OBJECT_ID><CENTER_NAME>EARTH</CENTER_NAME><REF_FRAME>TEME</REF_FRAME><TIME_SYSTEM>UTC</TIME_SYSTEM><MEAN_ELEMENT_THEORY>SGP4</MEAN_ELEMENT_THEORY></metadata><data><meanElements><EPOCH>2025-02-28T09:29:17.250720</EPOCH><MEAN_MOTION>12.29422022</MEAN_MOTION><ECCENTRICITY>.0006271</ECCENTRICITY><INCLINATION>52.0033</INCLINATION><RA_OF_ASC_NODE>310.8748</RA_OF_ASC_NODE><ARG_OF_PERICENTER>267.8438</ARG_OF_PERICENTER><MEAN_ANOMALY>92.1695</MEAN_ANOMALY></meanElements><tleParameters><EPHEMERIS_TYPE>0</EPHEMERIS_TYPE><CLASSIFICATION_TYPE>U</CLASSIFICATION_TYPE><NORAD_CAT_ID>25910</NORAD_CAT_ID><ELEMENT_SET_NO>999</ELEMENT_SET_NO><REV_AT_EPOCH>15490</REV_AT_EPOCH><BSTAR>.52878E-3</BSTAR><MEAN_MOTION_DOT>-.32E-6</MEAN_MOTION_DOT><MEAN_MOTION_DDOT>0</MEAN_MOTION_DDOT></tleParameters></data></segment></body></omm>

</ndm>
