GLOBALSTAR M024         
1 25883U 99043A   25059.60167631 -.00000123  00000+0 -20692-2 0  9990
2 25883  51.9991 265.6334 0000592 294.4305 100.2773 11.10164069102804
GLOBALSTAR M027         
1 25884U 99043B   25059.24751640 -.00000082  00000+0 -71052-3 0  9991
2 25884  52.0256 341.3256 0021145 174.4729 185.6301 11.04371050129200
GLOBALSTAR M054         
1 25885U 99043C   25059.61113616 -.00000142  00000+0 -17979-2 0  9992
2 25885  52.0126 126.0348 0005483 351.0498 160.9030 11.39213506106670
GLOBALSTAR M053         
1 25886U 99043D   25059.51361674 -.00000052  00000+0  47157-3 0  9992
2 25886  51.9984  67.3308 0003356 252.9955 278.3073 11.27663419107185
GLOBALSTAR M058         
1 25907U 99049A   25059.40718416 -.00000107  00000+0 -30608-3 0  9995
2 25907  51.9957  39.6438 0002218  64.8259 295.2806 11.93198766528559
GLOBALSTAR M050         
1 25908U 99049B   25059.46464815 -.00000026  00000+0  69829-3 0  9999
2 25908  51.9995  55.2885 0009194 173.9519 353.6677 12.07450031135059
GLOBALSTAR M033         
1 25909U 99049C   25059.32840889 -.00000121  00000+0 -28468-3 0  9995
2 25909  51.9916 295.0180 0014028  41.7476 318.4440 12.20287022522455
GLOBALSTAR M055         
1 25910U 99049D   25059.39533855 -.00000032  00000+0  52878-3 0  9998
2 25910  52.0033 310.8748 0006271 267.8438  92.1695 12.29422022154904
